OBJECT_NAME,OBJECT_ID,EPOCH,MEAN_MOTION,ECCENTRICITY,INCLINATION,RA_OF_ASC_NODE,ARG_OF_PERICENTER,MEAN_ANOMALY,EPHEMERIS_TYPE,CLASSIFICATION_TYPE,NORAD_CAT_ID,ELEMENT_SET_NO,REV_AT_EPOCH,BSTAR,MEAN_MOTION_DOT,MEAN_MOTION_DDOT
DMSP 5D-3 F16 (USA 172),2003-048A,2026-07-18T15:28:28.085664,14.14484747,.00080198,98.9897,223.6801,62.6707,10.8585,0,U,28054,999,17393,-.5703927E-5,-.56E-6,0
METEOSAT-9 (MSG-2),2005-049B,2026-07-18T14:53:51.313056,1.00273980,.00023679,9.4309,53.8541,357.5918,154.1112,0,U,28912,999,731,0,.113E-5,0
DMSP 5D-3 F17 (USA 191),2006-050A,2026-07-18T15:16:05.386080,14.14996190,.00095271,98.7389,205.5640,332.6558,27.4113,0,U,29522,999,1687,.315044E-5,-.37E-6,0
FENGYUN 3A,2008-026A,2026-07-18T13:16:53.563872,14.19576849,.00095414,98.6886,139.8009,43.1787,317.0136,0,U,32958,999,93985,.27289719E-4,.14E-6,0
EWS-G3 (GOES 14),2009-033A,2026-07-18T13:33:38.500416,1.00096645,.00020524,1.7689,82.6527,39.5207,140.5604,0,U,35491,999,690,0,-.367E-5,0
DMSP 5D-3 F18 (USA 210),2009-057A,2026-07-18T14:37:42.311136,14.14913143,.00114342,98.9058,180.3138,156.0441,204.1266,0,U,35951,999,86403,.10448926E-3,.157E-5,0
EWS-G2 (GOES 15),2010-008A,2026-07-18T11:48:54.909216,1.00269152,.00053552,1.3619,82.4242,54.1722,40.1999,0,U,36411,999,5995,0,.15E-6,0
COMS 1,2010-032A,2026-07-18T11:16:20.531712,0.99167179,.00113427,4.8838,74.9794,15.0293,324.3937,0,U,36744,999,5139,0,-.226E-5,0
FENGYUN 3B,2010-059A,2026-07-18T15:37:42.248352,14.14848773,.00231674,98.9598,245.7966,97.2082,61.2349,0,U,37214,999,81187,.24492646E-3,.429E-5,0
SUOMI NPP,2011-061A,2026-07-18T13:34:45.667776,14.19522963,.00009107,98.7955,140.2287,197.7202,162.3942,0,U,37849,999,76289,.32176638E-4,.23E-6,0
METEOSAT-10 (MSG-3),2012-035B,2026-07-18T08:05:37.320864,1.00271778,.00013021,4.7438,60.8671,16.8895,339.8317,0,U,38552,999,5116,0,-.17E-6,0
METOP-B,2012-049A,2026-07-18T14:00:51.795648,14.21446965,.00011974,98.6487,250.4540,236.4280,123.6784,0,U,38771,999,71772,.36062771E-4,.36E-6,0
INSAT-3D,2013-038B,2026-07-18T13:33:38.500416,1.00274547,.00009473,2.0054,82.1489,46.3649,140.7402,0,U,39216,999,4739,0,-.347E-5,0
FENGYUN 3C,2013-052A,2026-07-18T15:14:06.104832,14.15761102,.001355,98.5002,172.0694,295.3066,64.6705,0,U,39260,999,66301,.19649881E-4,-.3E-7,0
METEOR-M 2,2014-037A,2026-07-18T14:38:10.613184,14.21470306,.00049408,98.5138,174.2390,315.4693,44.6088,0,U,40069,999,62378,.69654309E-4,.11E-5,0
HIMAWARI-8,2014-060A,2026-07-18T15:39:55.649088,1.00270615,.00012051,0.0108,49.1233,115.1200,147.8525,0,U,40267,999,4307,0,-.283E-5,0
FENGYUN 2G,2014-090A,2026-07-18T13:41:54.599712,1.00279546,.00040262,5.7165,72.4368,174.2061,354.6235,0,U,40367,999,4231,0,-.311E-5,0
METEOSAT-11 (MSG-4),2015-034A,2026-07-18T06:25:31.676736,1.00272819,.00020923,3.2763,70.9096,354.8615,335.9412,0,U,40732,999,752,0,.53E-6,0
ELEKTRO-L 2,2015-074A,2026-07-18T09:44:02.508576,1.00272087,.00009578,6.7707,70.1389,220.4397,137.1429,0,U,41105,999,3881,0,-.128E-5,0
SENTINEL-3A,2016-011A,2026-07-18T15:14:00.888864,14.26740388,.00013232,98.6235,266.5643,89.3195,270.8137,0,U,41335,999,54254,.35109859E-4,.41E-6,0
INSAT-3DR,2016-054A,2026-07-18T13:34:32.807136,1.00271147,.0010435,0.0784,89.0133,180.7285,304.2483,0,U,41752,999,3613,0,-.84E-6,0
HIMAWARI-9,2016-064A,2026-07-18T16:01:01.111872,1.00268829,.000232,0.0065,350.7565,184.8075,141.8997,0,U,41836,999,3552,0,0,0
GOES 16,2016-071A,2026-07-18T12:15:56.026368,1.00271360,.00005935,0.4126,85.4585,82.3821,207.7552,0,U,41866,999,3541,0,-.98E-6,0
FENGYUN 4A,2016-077A,2026-07-18T05:15:28.651104,1.00266586,.00084089,2.3999,79.9326,159.8070,258.8550,0,U,41882,999,3524,0,-.366E-5,0
CYGFM05,2016-078A,2026-07-17T22:46:48.154944,15.57940504,.00055022,34.9569,56.6818,66.5453,293.5850,0,U,41884,999,53355,.20177682E-3,.15584E-3,0
CYGFM04,2016-078B,2026-07-18T14:04:36.102144,15.63222567,.0004188,34.9328,18.4985,125.4706,234.6411,0,U,41885,999,53391,.21249849E-3,.20138E-3,0
CYGFM02,2016-078C,2026-07-18T14:06:17.724960,15.66534306,.00049114,34.9410,12.0586,127.2650,232.8526,0,U,41886,999,53409,.22674106E-3,.24554E-3,0
CYGFM01,2016-078D,2026-07-18T15:05:06.245664,15.58684264,.00053441,34.9400,52.9684,66.5688,293.5598,0,U,41887,999,53361,.19473453E-3,.15469E-3,0
CYGFM08,2016-078E,2026-07-18T15:49:58.899072,15.61589750,.00059594,34.9435,31.4749,107.4193,252.7184,0,U,41888,999,53389,.20698563E-3,.18401E-3,0
CYGFM07,2016-078G,2026-07-18T14:48:09.917280,15.61698203,.00045556,34.9452,20.0749,125.0241,235.0912,0,U,41890,999,53391,.20841532E-3,.18601E-3,0
CYGFM03,2016-078H,2026-07-18T14:06:44.075232,15.61683312,.00043109,34.9407,22.1955,106.3196,253.8004,0,U,41891,999,53388,.20665373E-3,.18431E-3,0
