DMSP 5D-3 F16 (USA 172) 
1 28054U 03048A   26199.64476951 -.00000056  00000+0 -57039-5 0  9994
2 28054  98.9897 223.6801 0008019  62.6707  10.8585 14.14484747173933
METEOSAT-9 (MSG-2)      
1 28912U 05049B   26199.62073279  .00000113  00000+0  00000+0 0  9996
2 28912   9.4309  53.8541 0002367 357.5918 154.1112  1.00273980  7317
DMSP 5D-3 F17 (USA 191) 
1 29522U 06050A   26199.63617345 -.00000037  00000+0  31504-5 0  9991
2 29522  98.7389 205.5640 0009527 332.6558  27.4113 14.14996190 16877
FENGYUN 3A              
1 32958U 08026A   26199.55339773  .00000014  00000+0  27290-4 0  9990
2 32958  98.6886 139.8009 0009541  43.1787 317.0136 14.19576849939852
EWS-G3 (GOES 14)        
1 35491U 09033A   26199.56502894 -.00000367  00000+0  00000+0 0  9998
2 35491   1.7689  82.6527 0002052  39.5207 140.5604  1.00096645  6906
DMSP 5D-3 F18 (USA 210) 
1 35951U 09057A   26199.60951749  .00000157  00000+0  10449-3 0  9995
2 35951  98.9058 180.3138 0011434 156.0441 204.1266 14.14913143864035
EWS-G2 (GOES 15)        
1 36411U 10008A   26199.49230219  .00000015  00000+0  00000+0 0  9995
2 36411   1.3619  82.4242 0005355  54.1722  40.1999  1.00269152 59954
COMS 1                  
1 36744U 10032A   26199.46968208 -.00000226  00000+0  00000+0 0  9999
2 36744   4.8838  74.9794 0011342  15.0293 324.3937  0.99167179 51396
FENGYUN 3B              
1 37214U 10059A   26199.65118343  .00000429  00000+0  24493-3 0  9999
2 37214  98.9598 245.7966 0023167  97.2082  61.2349 14.14848773811870
SUOMI NPP               
1 37849U 11061A   26199.56580634  .00000023  00000+0  32177-4 0  9992
2 37849  98.7955 140.2287 0000910 197.7202 162.3942 14.19522963762899
METEOSAT-10 (MSG-3)     
1 38552U 12035B   26199.33723751 -.00000017  00000+0  00000+0 0  9999
2 38552   4.7438  60.8671 0001302  16.8895 339.8317  1.00271778 51162
METOP-B                 
1 38771U 12049A   26199.58393282  .00000036  00000+0  36063-4 0  9999
2 38771  98.6487 250.4540 0001197 236.4280 123.6784 14.21446965717720
INSAT-3D                
1 39216U 13038B   26199.56502894 -.00000347  00000+0  00000+0 0  9995
2 39216   2.0054  82.1489 0000947  46.3649 140.7402  1.00274547 47399
FENGYUN 3C              
1 39260U 13052A   26199.63479288 -.00000003  00000+0  19650-4 0  9993
2 39260  98.5002 172.0694 0013550 295.3066  64.6705 14.15761102663012
METEOR-M 2              
1 40069U 14037A   26199.60984506  .00000110  00000+0  69654-4 0  9994
2 40069  98.5138 174.2390 0004940 315.4693  44.6088 14.21470306623783
HIMAWARI-8              
1 40267U 14060A   26199.65272742 -.00000283  00000+0  00000+0 0  9994
2 40267   0.0108  49.1233 0001205 115.1200 147.8525  1.00270615 43078
FENGYUN 2G              
1 40367U 14090A   26199.57077083 -.00000311  00000+0  00000+0 0  9992
2 40367   5.7165  72.4368 0004026 174.2061 354.6235  1.00279546 42311
METEOSAT-11 (MSG-4)     
1 40732U 15034A   26199.26772774  .00000053  00000+0  00000+0 0  9994
2 40732   3.2763  70.9096 0002092 354.8615 335.9412  1.00272819  7526
ELEKTRO-L 2             
1 41105U 15074A   26199.40558459 -.00000128  00000+0  00000+0 0  9995
2 41105   6.7707  70.1389 0000957 220.4397 137.1429  1.00272087 38810
SENTINEL-3A             
1 41335U 16011A   26199.63473251  .00000041  00000+0  35110-4 0  9991
2 41335  98.6235 266.5643 0001323  89.3195 270.8137 14.26740388542548
INSAT-3DR               
1 41752U 16054A   26199.56565749 -.00000084  00000+0  00000+0 0  9990
2 41752   0.0784  89.0133 0010435 180.7285 304.2483  1.00271147 36138
HIMAWARI-9              
1 41836U 16064A   26199.66737398  .00000000  00000+0  00000+0 0  9993
2 41836   0.0065 350.7565 0002320 184.8075 141.8997  1.00268829 35526
GOES 16                 
1 41866U 16071A   26199.51106512 -.00000098  00000+0  00000+0 0  9994
2 41866   0.4126  85.4585 0000593  82.3821 207.7552  1.00271360 35417
FENGYUN 4A              
1 41882U 16077A   26199.21908161 -.00000366  00000+0  00000+0 0  9993
2 41882   2.3999  79.9326 0008408 159.8070 258.8550  1.00266586 35244
CYGFM05                 
1 41884U 16078A   26198.94916846  .00015584  00000+0  20178-3 0  9993
2 41884  34.9569  56.6818 0005502  66.5453 293.5850 15.57940504533551
CYGFM04                 
1 41885U 16078B   26199.58652896  .00020138  00000+0  21250-3 0  9990
2 41885  34.9328  18.4985 0004188 125.4706 234.6411 15.63222567533919
CYGFM02                 
1 41886U 16078C   26199.58770515  .00024554  00000+0  22674-3 0  9997
2 41886  34.9410  12.0586 0004911 127.2650 232.8526 15.66534306534098
CYGFM01                 
1 41887U 16078D   26199.62854451  .00015469  00000+0  19473-3 0  9993
2 41887  34.9400  52.9684 0005344  66.5688 293.5598 15.58684264533617
CYGFM08                 
1 41888U 16078E   26199.65970948  .00018401  00000+0  20699-3 0  9998
2 41888  34.9435  31.4749 0005959 107.4193 252.7184 15.61589750533894
CYGFM07                 
1 41890U 16078G   26199.61678145  .00018601  00000+0  20842-3 0  9993
2 41890  34.9452  20.0749 0004555 125.0241 235.0912 15.61698203533911
CYGFM03                 
1 41891U 16078H   26199.58801013  .00018431  00000+0  20665-3 0  9996
2 41891  34.9407  22.1955 0004310 106.3196 253.8004 15.61683312533885
